CCSDS_OMM_VERS = 2.0
CREATION_DATE  = 
ORIGINATOR     = 

OBJECT_NAME    = STARLINK-35671
OBJECT_ID      = 2025-257N
CENTER_NAME    = EARTH
REF_FRAME      = TEME
TIME_SYSTEM    = UTC
MEAN_ELEMENT_THEORY = SGP/SGP4

EPOCH          = 2025-12-08T22:14:22.326720
MEAN_MOTION    = 15.39679807
ECCENTRICITY   = .00014897
INCLINATION    = 53.1604
RA_OF_ASC_NODE = 282.4131
ARG_OF_PERICENTER = 91.8525
MEAN_ANOMALY   = 268.2650

EPHEMERIS_TYPE = 0
CLASSIFICATION_TYPE = U
NORAD_CAT_ID   = 66392
ELEMENT_SET_NO = 999
REV_AT_EPOCH   = 578
BSTAR          = .14534201E-2
MEAN_MOTION_DOT = .58297E-3
MEAN_MOTION_DDOT = 0

CCSDS_OMM_VERS = 2.0
CREATION_DATE  = 
ORIGINATOR     = 

OBJECT_NAME    = STARLINK-35652
OBJECT_ID      = 2025-257P
CENTER_NAME    = EARTH
REF_FRAME      = TEME
TIME_SYSTEM    = UTC
MEAN_ELEMENT_THEORY = SGP/SGP4

EPOCH          = 2025-12-09T00:00:02.000160
MEAN_MOTION    = 15.39604414
ECCENTRICITY   = .00010714
INCLINATION    = 53.1588
RA_OF_ASC_NODE = 281.9669
ARG_OF_PERICENTER = 81.8812
MEAN_ANOMALY   = 14.8215

EPHEMERIS_TYPE = 0
CLASSIFICATION_TYPE = U
NORAD_CAT_ID   = 66393
ELEMENT_SET_NO = 999
REV_AT_EPOCH   = 589
BSTAR          = .30805172E-3
MEAN_MOTION_DOT = .11935E-3
MEAN_MOTION_DDOT = 0

CCSDS_OMM_VERS = 2.0
CREATION_DATE  = 
ORIGINATOR     = 

OBJECT_NAME    = STARLINK-35672
OBJECT_ID      = 2025-257Q
CENTER_NAME    = EARTH
REF_FRAME      = TEME
TIME_SYSTEM    = UTC
MEAN_ELEMENT_THEORY = SGP/SGP4

EPOCH          = 2025-12-09T00:00:02.000160
MEAN_MOTION    = 15.39603633
ECCENTRICITY   = .00012384
INCLINATION    = 53.1589
RA_OF_ASC_NODE = 281.9622
ARG_OF_PERICENTER = 96.9982
MEAN_ANOMALY   = 1.5477

EPHEMERIS_TYPE = 0
CLASSIFICATION_TYPE = U
NORAD_CAT_ID   = 66394
ELEMENT_SET_NO = 999
REV_AT_EPOCH   = 589
BSTAR          = .30676119E-3
MEAN_MOTION_DOT = .11883E-3
MEAN_MOTION_DDOT = 0

CCSDS_OMM_VERS = 2.0
CREATION_DATE  = 
ORIGINATOR     = 

OBJECT_NAME    = STARLINK-35681
OBJECT_ID      = 2025-257R
CENTER_NAME    = EARTH
REF_FRAME      = TEME
TIME_SYSTEM    = UTC
MEAN_ELEMENT_THEORY = SGP/SGP4

EPOCH          = 2025-12-09T00:00:02.000160
MEAN_MOTION    = 15.39604924
ECCENTRICITY   = .00009187
INCLINATION    = 53.1595
RA_OF_ASC_NODE = 281.9156
ARG_OF_PERICENTER = 99.3628
MEAN_ANOMALY   = 23.0983

EPHEMERIS_TYPE = 0
CLASSIFICATION_TYPE = U
NORAD_CAT_ID   = 66395
ELEMENT_SET_NO = 999
REV_AT_EPOCH   = 573
BSTAR          = .34312316E-3
MEAN_MOTION_DOT = .13342E-3
MEAN_MOTION_DDOT = 0

CCSDS_OMM_VERS = 2.0
CREATION_DATE  = 
ORIGINATOR     = 

OBJECT_NAME    = STARLINK-35669
OBJECT_ID      = 2025-257S
CENTER_NAME    = EARTH
REF_FRAME      = TEME
TIME_SYSTEM    = UTC
MEAN_ELEMENT_THEORY = SGP/SGP4

EPOCH          = 2025-12-09T00:00:02.000160
MEAN_MOTION    = 15.39604606
ECCENTRICITY   = .00009856
INCLINATION    = 53.1595
RA_OF_ASC_NODE = 281.9110
ARG_OF_PERICENTER = 95.1533
MEAN_ANOMALY   = 29.1460

EPHEMERIS_TYPE = 0
CLASSIFICATION_TYPE = U
NORAD_CAT_ID   = 66396
ELEMENT_SET_NO = 999
REV_AT_EPOCH   = 589
BSTAR          = .34854443E-3
MEAN_MOTION_DOT = .1356E-3
MEAN_MOTION_DDOT = 0

CCSDS_OMM_VERS = 2.0
CREATION_DATE  = 
ORIGINATOR     = 

OBJECT_NAME    = STARLINK-35510
OBJECT_ID      = 2025-257T
CENTER_NAME    = EARTH
REF_FRAME      = TEME
TIME_SYSTEM    = UTC
MEAN_ELEMENT_THEORY = SGP/SGP4

EPOCH          = 2025-12-09T00:00:02.000160
MEAN_MOTION    = 15.39602875
ECCENTRICITY   = .00013817
INCLINATION    = 53.1599
RA_OF_ASC_NODE = 281.8638
ARG_OF_PERICENTER = 85.0090
MEAN_ANOMALY   = 63.1937

EPHEMERIS_TYPE = 0
CLASSIFICATION_TYPE = U
NORAD_CAT_ID   = 66397
ELEMENT_SET_NO = 999
REV_AT_EPOCH   = 589
BSTAR          = .36898064E-3
MEAN_MOTION_DOT = .14379E-3
MEAN_MOTION_DDOT = 0

CCSDS_OMM_VERS = 2.0
CREATION_DATE  = 
ORIGINATOR     = 

OBJECT_NAME    = STARLINK-35642
OBJECT_ID      = 2025-257U
CENTER_NAME    = EARTH
REF_FRAME      = TEME
TIME_SYSTEM    = UTC
MEAN_ELEMENT_THEORY = SGP/SGP4

EPOCH          = 2025-12-09T00:00:02.000160
MEAN_MOTION    = 15.39610709
ECCENTRICITY   = .00013962
INCLINATION    = 53.1599
RA_OF_ASC_NODE = 281.8122
ARG_OF_PERICENTER = 75.6664
MEAN_ANOMALY   = 98.2627

EPHEMERIS_TYPE = 0
CLASSIFICATION_TYPE = U
NORAD_CAT_ID   = 66398
ELEMENT_SET_NO = 999
REV_AT_EPOCH   = 589
BSTAR          = .56690289E-3
MEAN_MOTION_DOT = .22336E-3
MEAN_MOTION_DDOT = 0

CCSDS_OMM_VERS = 2.0
CREATION_DATE  = 
ORIGINATOR     = 

OBJECT_NAME    = STARLINK-35657
OBJECT_ID      = 2025-257V
CENTER_NAME    = EARTH
REF_FRAME      = TEME
TIME_SYSTEM    = UTC
MEAN_ELEMENT_THEORY = SGP/SGP4

EPOCH          = 2025-12-09T00:00:02.000160
MEAN_MOTION    = 15.39602297
ECCENTRICITY   = .00011294
INCLINATION    = 53.1599
RA_OF_ASC_NODE = 281.8596
ARG_OF_PERICENTER = 93.8093
MEAN_ANOMALY   = 56.2331

EPHEMERIS_TYPE = 0
CLASSIFICATION_TYPE = U
NORAD_CAT_ID   = 66399
ELEMENT_SET_NO = 999
REV_AT_EPOCH   = 589
BSTAR          = .44022059E-3
MEAN_MOTION_DOT = .17238E-3
MEAN_MOTION_DDOT = 0

CCSDS_OMM_VERS = 2.0
CREATION_DATE  = 
ORIGINATOR     = 

OBJECT_NAME    = STARLINK-35667
OBJECT_ID      = 2025-257W
CENTER_NAME    = EARTH
REF_FRAME      = TEME
TIME_SYSTEM    = UTC
MEAN_ELEMENT_THEORY = SGP/SGP4

EPOCH          = 2025-12-09T00:00:02.000160
MEAN_MOTION    = 15.39599744
ECCENTRICITY   = .00014482
INCLINATION    = 53.1597
RA_OF_ASC_NODE = 281.7600
ARG_OF_PERICENTER = 91.7126
MEAN_ANOMALY   = 108.0091

EPHEMERIS_TYPE = 0
CLASSIFICATION_TYPE = U
NORAD_CAT_ID   = 66400
ELEMENT_SET_NO = 999
REV_AT_EPOCH   = 589
BSTAR          = .38345514E-3
MEAN_MOTION_DOT = .14958E-3
MEAN_MOTION_DDOT = 0

CCSDS_OMM_VERS = 2.0
CREATION_DATE  = 
ORIGINATOR     = 

OBJECT_NAME    = STARLINK-35668
OBJECT_ID      = 2025-257X
CENTER_NAME    = EARTH
REF_FRAME      = TEME
TIME_SYSTEM    = UTC
MEAN_ELEMENT_THEORY = SGP/SGP4

EPOCH          = 2025-12-09T00:00:02.000160
MEAN_MOTION    = 15.39597067
ECCENTRICITY   = .00015787
INCLINATION    = 53.1598
RA_OF_ASC_NODE = 281.7564
ARG_OF_PERICENTER = 97.2850
MEAN_ANOMALY   = 104.2716

EPHEMERIS_TYPE = 0
CLASSIFICATION_TYPE = U
NORAD_CAT_ID   = 66401
ELEMENT_SET_NO = 999
REV_AT_EPOCH   = 589
BSTAR          = .45018356E-3
MEAN_MOTION_DOT = .17636E-3
MEAN_MOTION_DDOT = 0

CCSDS_OMM_VERS = 2.0
CREATION_DATE  = 
ORIGINATOR     = 

OBJECT_NAME    = STARLINK-35644
OBJECT_ID      = 2025-257Y
CENTER_NAME    = EARTH
REF_FRAME      = TEME
TIME_SYSTEM    = UTC
MEAN_ELEMENT_THEORY = SGP/SGP4

EPOCH          = 2025-12-09T00:00:02.000160
MEAN_MOTION    = 15.39596533
ECCENTRICITY   = .00012753
INCLINATION    = 53.1599
RA_OF_ASC_NODE = 281.8077
ARG_OF_PERICENTER = 96.3661
MEAN_ANOMALY   = 79.4497

EPHEMERIS_TYPE = 0
CLASSIFICATION_TYPE = U
NORAD_CAT_ID   = 66402
ELEMENT_SET_NO = 999
REV_AT_EPOCH   = 589
BSTAR          = .41575622E-3
MEAN_MOTION_DOT = .16253E-3
MEAN_MOTION_DDOT = 0

CCSDS_OMM_VERS = 2.0
CREATION_DATE  = 
ORIGINATOR     = 

OBJECT_NAME    = STARLINK-35602
OBJECT_ID      = 2025-257Z
CENTER_NAME    = EARTH
REF_FRAME      = TEME
TIME_SYSTEM    = UTC
MEAN_ELEMENT_THEORY = SGP/SGP4

EPOCH          = 2025-12-09T00:00:02.000160
MEAN_MOTION    = 15.40521799
ECCENTRICITY   = .00014619
INCLINATION    = 53.1593
RA_OF_ASC_NODE = 281.7092
ARG_OF_PERICENTER = 87.8304
MEAN_ANOMALY   = 137.1708

EPHEMERIS_TYPE = 0
CLASSIFICATION_TYPE = U
NORAD_CAT_ID   = 66403
ELEMENT_SET_NO = 999
REV_AT_EPOCH   = 589
BSTAR          = -.33975322E-1
MEAN_MOTION_DOT = -.1266014E-1
MEAN_MOTION_DDOT = 0

