STARLINK-35671          
1 66392U 25257N   25342.92664730  .00058297  00000+0  14534-2 0  9999
2 66392  53.1604 282.4131 0001489  91.8525 268.2650 15.39679807  5784
STARLINK-35652          
1 66393U 25257P   25343.00002315  .00011935  00000+0  30805-3 0  9993
2 66393  53.1588 281.9669 0001071  81.8812  14.8215 15.39604414  5897
STARLINK-35672          
1 66394U 25257Q   25343.00002315  .00011883  00000+0  30676-3 0  9992
2 66394  53.1589 281.9622 0001238  96.9982   1.5477 15.39603633  5893
STARLINK-35681          
1 66395U 25257R   25343.00002315  .00013342  00000+0  34312-3 0  9996
2 66395  53.1595 281.9156 0000918  99.3628  23.0983 15.39604924  5739
STARLINK-35669          
1 66396U 25257S   25343.00002315  .00013560  00000+0  34854-3 0  9990
2 66396  53.1595 281.9110 0000985  95.1533  29.1460 15.39604606  5894
STARLINK-35510          
1 66397U 25257T   25343.00002315  .00014379  00000+0  36898-3 0  9990
2 66397  53.1599 281.8638 0001381  85.0090  63.1937 15.39602875  5893
STARLINK-35642          
1 66398U 25257U   25343.00002315  .00022336  00000+0  56690-3 0  9995
2 66398  53.1599 281.8122 0001396  75.6664  98.2627 15.39610709  5890
STARLINK-35657          
1 66399U 25257V   25343.00002315  .00017238  00000+0  44022-3 0  9997
2 66399  53.1599 281.8596 0001129  93.8093  56.2331 15.39602297  5897
STARLINK-35667          
1 66400U 25257W   25343.00002315  .00014958  00000+0  38346-3 0  9998
2 66400  53.1597 281.7600 0001448  91.7126 108.0091 15.39599744  5892
STARLINK-35668          
1 66401U 25257X   25343.00002315  .00017636  00000+0  45018-3 0  9999
2 66401  53.1598 281.7564 0001578  97.2850 104.2716 15.39597067  5890
STARLINK-35644          
1 66402U 25257Y   25343.00002315  .00016253  00000+0  41576-3 0  9999
2 66402  53.1599 281.8077 0001275  96.3661  79.4497 15.39596533  5892
STARLINK-35602          
1 66403U 25257Z   25343.00002315 -.01266014  00000+0 -33975-1 0  9997
2 66403  53.1593 281.7092 0001461  87.8304 137.1708 15.40521799  5890
